STARLINK-2245
1 18589C 21041AN  21326.16756095 -.00017600  00000-0 -11795-2 0  3260
2 18589  53.0538 332.9920 0001707  46.2346  72.7867 15.06407675    17
